street,city,state,postal_code,country,telephone
22464DickensHighwayApt.245,SouthBillmouth,Ohio,27763,UnitedSates,(530)217-1460
989FramiAvenue,Johnathonberg,NorthDakota,16837,UnitedSates,(560)514-0756x42
2447BlickCanyon,NorthEbba,WestVirginia,71051,UnitedSates,(803)415-2496x7
975MacejkovicCenter,PortLisachester,Nevada,36348,UnitedSates,(252)585-9186
327PowlowskiDaleApt.524,Abbottstad,Maryland,04716,UnitedSates,(275)781-9191x9
404KassulkeHollowSuite828,LakeAlysha,Montana,23005,UnitedSates,(554)426-1360x35
284WilbertInlet,NorthJasminstad,Wisconsin,61607,UnitedSates,(371)677-7958x18
4782EltonVillageApt.510,EastMacey,Illinois,37288,UnitedSates,(381)922-3545x11
75558HomenickCurve,NewCatalina,DistrictofColumbia,96683,UnitedSates,(787)342-5710x6
44688KatharinaCausewaySuite596,Heathcotehaven,NewJersey,54126,UnitedSates,(949)339-4723
7757CollinsOrchardSuite119,WestBrayanton,Florida,49353,UnitedSates,(532)238-2059x5
7592RunteCrestApt.627,SouthMarquesmouth,Tennessee,62794,UnitedSates,(954)224-6765
33413KeyonCourseApt.437,Eltonland,NewJersey,92032,UnitedSates,(657)349-7446x9
347RileyHighwayApt.368,Jenkinshaven,Kentucky,14886,UnitedSates,(881)296-6541
235RutherfordAvenue,PortHyman,Illinois,95605,UnitedSates,(361)558-3504
104AbernathyFall,NewSabrinaburgh,Florida,76197,UnitedSates,(789)581-1102
80482KatlynnWalk,NewGlennie,Florida,02498,UnitedSates,(497)349-4456x25
1399HollisKnollSuite148,Stokesshire,Utah,64358,UnitedSates,(912)908-7685x2
347AndersonFord,Mantemouth,Texas,71988,UnitedSates,(872)214-8485x9
11319RosinaBridgeApt.433,WestJosiannefort,NewYork,43687,UnitedSates,(851)675-4725x8
